CCSDS_OMM_VERS = 2.0
CREATION_DATE  = 
ORIGINATOR     = 

OBJECT_NAME    = UNKNOWN
OBJECT_ID      = 
CENTER_NAME    = EARTH
REF_FRAME      = TEME
TIME_SYSTEM    = UTC
MEAN_ELEMENT_THEORY = SGP/SGP4

EPOCH          = 2026-01-17T15:49:51.009888
MEAN_MOTION    = 12.76558200
ECCENTRICITY   = .00512515
INCLINATION    = 101.1031
RA_OF_ASC_NODE = 4.5851
ARG_OF_PERICENTER = 196.1033
MEAN_ANOMALY   = 163.8427

EPHEMERIS_TYPE = 0
CLASSIFICATION_TYPE = U
NORAD_CAT_ID   = 270161
ELEMENT_SET_NO = 999
REV_AT_EPOCH   = 28576
BSTAR          = .19174249E-2
MEAN_MOTION_DOT = .374E-5
MEAN_MOTION_DDOT = 0

CCSDS_OMM_VERS = 2.0
CREATION_DATE  = 
ORIGINATOR     = 

OBJECT_NAME    = UNKNOWN
OBJECT_ID      = 
CENTER_NAME    = EARTH
REF_FRAME      = TEME
TIME_SYSTEM    = UTC
MEAN_ELEMENT_THEORY = SGP/SGP4

EPOCH          = 2026-01-16T20:09:50.038272
MEAN_MOTION    = 12.64513201
ECCENTRICITY   = .09260092
INCLINATION    = 28.8393
RA_OF_ASC_NODE = 74.0781
ARG_OF_PERICENTER = 156.4556
MEAN_ANOMALY   = 208.1301

EPHEMERIS_TYPE = 0
CLASSIFICATION_TYPE = U
NORAD_CAT_ID   = 270162
ELEMENT_SET_NO = 999
REV_AT_EPOCH   = 28269
BSTAR          = .20944698E-3
MEAN_MOTION_DOT = .288E-5
MEAN_MOTION_DDOT = 0

CCSDS_OMM_VERS = 2.0
CREATION_DATE  = 
ORIGINATOR     = 

OBJECT_NAME    = UNKNOWN
OBJECT_ID      = 
CENTER_NAME    = EARTH
REF_FRAME      = TEME
TIME_SYSTEM    = UTC
MEAN_ELEMENT_THEORY = SGP/SGP4

EPOCH          = 2026-01-17T04:51:01.687968
MEAN_MOTION    = 12.99994706
ECCENTRICITY   = .00259735
INCLINATION    = 90.2431
RA_OF_ASC_NODE = 7.8773
ARG_OF_PERICENTER = 311.6539
MEAN_ANOMALY   = 48.2360

EPHEMERIS_TYPE = 0
CLASSIFICATION_TYPE = U
NORAD_CAT_ID   = 270164
ELEMENT_SET_NO = 999
REV_AT_EPOCH   = 29036
BSTAR          = .16973566E-2
MEAN_MOTION_DOT = .518E-5
MEAN_MOTION_DDOT = 0

CCSDS_OMM_VERS = 2.0
CREATION_DATE  = 
ORIGINATOR     = 

OBJECT_NAME    = UNKNOWN
OBJECT_ID      = 
CENTER_NAME    = EARTH
REF_FRAME      = TEME
TIME_SYSTEM    = UTC
MEAN_ELEMENT_THEORY = SGP/SGP4

EPOCH          = 2026-01-21T16:48:37.039680
MEAN_MOTION    = 12.95691305
ECCENTRICITY   = .00416747
INCLINATION    = 90.2404
RA_OF_ASC_NODE = 8.9399
ARG_OF_PERICENTER = 220.7006
MEAN_ANOMALY   = 139.0997

EPHEMERIS_TYPE = 0
CLASSIFICATION_TYPE = U
NORAD_CAT_ID   = 270165
ELEMENT_SET_NO = 999
REV_AT_EPOCH   = 28949
BSTAR          = .96091718E-3
MEAN_MOTION_DOT = .28E-5
MEAN_MOTION_DDOT = 0

CCSDS_OMM_VERS = 2.0
CREATION_DATE  = 
ORIGINATOR     = 

OBJECT_NAME    = UNKNOWN
OBJECT_ID      = 
CENTER_NAME    = EARTH
REF_FRAME      = TEME
TIME_SYSTEM    = UTC
MEAN_ELEMENT_THEORY = SGP/SGP4

EPOCH          = 2026-01-22T08:03:59.492736
MEAN_MOTION    = 14.31241212
ECCENTRICITY   = .00060691
INCLINATION    = 98.7487
RA_OF_ASC_NODE = 43.3576
ARG_OF_PERICENTER = 119.6092
MEAN_ANOMALY   = 240.5696

EPHEMERIS_TYPE = 0
CLASSIFICATION_TYPE = U
NORAD_CAT_ID   = 270166
ELEMENT_SET_NO = 999
REV_AT_EPOCH   = 32093
BSTAR          = .25108051E-3
MEAN_MOTION_DOT = .619E-5
MEAN_MOTION_DDOT = 0

CCSDS_OMM_VERS = 2.0
CREATION_DATE  = 
ORIGINATOR     = 

OBJECT_NAME    = UNKNOWN
OBJECT_ID      = 
CENTER_NAME    = EARTH
REF_FRAME      = TEME
TIME_SYSTEM    = UTC
MEAN_ELEMENT_THEORY = SGP/SGP4

EPOCH          = 2026-01-19T18:39:23.198976
MEAN_MOTION    = 11.48033593
ECCENTRICITY   = .07015798
INCLINATION    = 65.7392
RA_OF_ASC_NODE = 53.8914
ARG_OF_PERICENTER = 183.1244
MEAN_ANOMALY   = 176.5190

EPHEMERIS_TYPE = 0
CLASSIFICATION_TYPE = U
NORAD_CAT_ID   = 270167
ELEMENT_SET_NO = 999
REV_AT_EPOCH   = 25746
BSTAR          = -.85190296E-3
MEAN_MOTION_DOT = -.109E-5
MEAN_MOTION_DDOT = 0

CCSDS_OMM_VERS = 2.0
CREATION_DATE  = 
ORIGINATOR     = 

OBJECT_NAME    = UNKNOWN
OBJECT_ID      = 
CENTER_NAME    = EARTH
REF_FRAME      = TEME
TIME_SYSTEM    = UTC
MEAN_ELEMENT_THEORY = SGP/SGP4

EPOCH          = 2026-01-21T13:06:16.459776
MEAN_MOTION    = 14.38912851
ECCENTRICITY   = .00658377
INCLINATION    = 86.1996
RA_OF_ASC_NODE = 324.0964
ARG_OF_PERICENTER = 118.5979
MEAN_ANOMALY   = 242.1865

EPHEMERIS_TYPE = 0
CLASSIFICATION_TYPE = U
NORAD_CAT_ID   = 270168
ELEMENT_SET_NO = 999
REV_AT_EPOCH   = 32079
BSTAR          = .33612417E-2
MEAN_MOTION_DOT = .10646E-3
MEAN_MOTION_DDOT = 0

CCSDS_OMM_VERS = 2.0
CREATION_DATE  = 
ORIGINATOR     = 

OBJECT_NAME    = UNKNOWN
OBJECT_ID      = 
CENTER_NAME    = EARTH
REF_FRAME      = TEME
TIME_SYSTEM    = UTC
MEAN_ELEMENT_THEORY = SGP/SGP4

EPOCH          = 2026-01-21T13:00:14.101632
MEAN_MOTION    = 13.42952707
ECCENTRICITY   = .02090062
INCLINATION    = 83.0019
RA_OF_ASC_NODE = 115.9120
ARG_OF_PERICENTER = 88.4638
MEAN_ANOMALY   = 274.0429

EPHEMERIS_TYPE = 0
CLASSIFICATION_TYPE = U
NORAD_CAT_ID   = 270169
ELEMENT_SET_NO = 999
REV_AT_EPOCH   = 30144
BSTAR          = .11988807E-2
MEAN_MOTION_DOT = .793E-5
MEAN_MOTION_DDOT = 0

CCSDS_OMM_VERS = 2.0
CREATION_DATE  = 
ORIGINATOR     = 

OBJECT_NAME    = UNKNOWN
OBJECT_ID      = 
CENTER_NAME    = EARTH
REF_FRAME      = TEME
TIME_SYSTEM    = UTC
MEAN_ELEMENT_THEORY = SGP/SGP4

EPOCH          = 2026-01-19T05:46:51.547296
MEAN_MOTION    = 14.41594020
ECCENTRICITY   = .00151871
INCLINATION    = 65.0036
RA_OF_ASC_NODE = 213.1129
ARG_OF_PERICENTER = 284.4279
MEAN_ANOMALY   = 75.5125

EPHEMERIS_TYPE = 0
CLASSIFICATION_TYPE = U
NORAD_CAT_ID   = 270170
ELEMENT_SET_NO = 999
REV_AT_EPOCH   = 32225
BSTAR          = .43202634E-3
MEAN_MOTION_DOT = .1308E-4
MEAN_MOTION_DDOT = 0

CCSDS_OMM_VERS = 2.0
CREATION_DATE  = 
ORIGINATOR     = 

OBJECT_NAME    = UNKNOWN
OBJECT_ID      = 
CENTER_NAME    = EARTH
REF_FRAME      = TEME
TIME_SYSTEM    = UTC
MEAN_ELEMENT_THEORY = SGP/SGP4

EPOCH          = 2026-01-13T07:18:40.421664
MEAN_MOTION    = 11.95838149
ECCENTRICITY   = .0019367
INCLINATION    = 82.4219
RA_OF_ASC_NODE = 36.7265
ARG_OF_PERICENTER = 261.5824
MEAN_ANOMALY   = 98.3033

EPHEMERIS_TYPE = 0
CLASSIFICATION_TYPE = U
NORAD_CAT_ID   = 270171
ELEMENT_SET_NO = 999
REV_AT_EPOCH   = 26712
BSTAR          = .42830333E-2
MEAN_MOTION_DOT = .337E-5
MEAN_MOTION_DDOT = 0

CCSDS_OMM_VERS = 2.0
CREATION_DATE  = 
ORIGINATOR     = 

OBJECT_NAME    = UNKNOWN
OBJECT_ID      = 
CENTER_NAME    = EARTH
REF_FRAME      = TEME
TIME_SYSTEM    = UTC
MEAN_ELEMENT_THEORY = SGP/SGP4

EPOCH          = 2026-01-11T06:58:32.737152
MEAN_MOTION    = 14.45572903
ECCENTRICITY   = .00267789
INCLINATION    = 86.3736
RA_OF_ASC_NODE = 28.9743
ARG_OF_PERICENTER = 60.5181
MEAN_ANOMALY   = 299.8688

EPHEMERIS_TYPE = 0
CLASSIFICATION_TYPE = U
NORAD_CAT_ID   = 270172
ELEMENT_SET_NO = 999
REV_AT_EPOCH   = 32162
BSTAR          = .47699052E-3
MEAN_MOTION_DOT = .1711E-4
MEAN_MOTION_DDOT = 0

CCSDS_OMM_VERS = 2.0
CREATION_DATE  = 
ORIGINATOR     = 

OBJECT_NAME    = UNKNOWN
OBJECT_ID      = 
CENTER_NAME    = EARTH
REF_FRAME      = TEME
TIME_SYSTEM    = UTC
MEAN_ELEMENT_THEORY = SGP/SGP4

EPOCH          = 2026-01-22T08:10:36.613920
MEAN_MOTION    = 14.85329320
ECCENTRICITY   = .00017897
INCLINATION    = 86.6014
RA_OF_ASC_NODE = 48.6511
ARG_OF_PERICENTER = 92.3701
MEAN_ANOMALY   = 267.7728

EPHEMERIS_TYPE = 0
CLASSIFICATION_TYPE = U
NORAD_CAT_ID   = 270173
ELEMENT_SET_NO = 999
REV_AT_EPOCH   = 33008
BSTAR          = .71619605E-3
MEAN_MOTION_DOT = .6181E-4
MEAN_MOTION_DDOT = 0

CCSDS_OMM_VERS = 2.0
CREATION_DATE  = 
ORIGINATOR     = 

OBJECT_NAME    = UNKNOWN
OBJECT_ID      = 
CENTER_NAME    = EARTH
REF_FRAME      = TEME
TIME_SYSTEM    = UTC
MEAN_ELEMENT_THEORY = SGP/SGP4

EPOCH          = 2026-01-22T05:40:12.716256
MEAN_MOTION    = 11.49750355
ECCENTRICITY   = .09510397
INCLINATION    = 63.3950
RA_OF_ASC_NODE = 19.5657
ARG_OF_PERICENTER = 317.6887
MEAN_ANOMALY   = 35.4322

EPHEMERIS_TYPE = 0
CLASSIFICATION_TYPE = U
NORAD_CAT_ID   = 270174
ELEMENT_SET_NO = 999
REV_AT_EPOCH   = 25860
BSTAR          = -.10035958E-2
MEAN_MOTION_DOT = -.184E-5
MEAN_MOTION_DDOT = 0

CCSDS_OMM_VERS = 2.0
CREATION_DATE  = 
ORIGINATOR     = 

OBJECT_NAME    = UNKNOWN
OBJECT_ID      = 
CENTER_NAME    = EARTH
REF_FRAME      = TEME
TIME_SYSTEM    = UTC
MEAN_ELEMENT_THEORY = SGP/SGP4

EPOCH          = 2026-01-18T13:24:37.513728
MEAN_MOTION    = 12.21087466
ECCENTRICITY   = .08286917
INCLINATION    = 83.3251
RA_OF_ASC_NODE = 119.2336
ARG_OF_PERICENTER = 259.6015
MEAN_ANOMALY   = 91.0728

EPHEMERIS_TYPE = 0
CLASSIFICATION_TYPE = U
NORAD_CAT_ID   = 270175
ELEMENT_SET_NO = 999
REV_AT_EPOCH   = 27343
BSTAR          = .81169743E-2
MEAN_MOTION_DOT = .2574E-4
MEAN_MOTION_DDOT = 0

CCSDS_OMM_VERS = 2.0
CREATION_DATE  = 
ORIGINATOR     = 

OBJECT_NAME    = UNKNOWN
OBJECT_ID      = 
CENTER_NAME    = EARTH
REF_FRAME      = TEME
TIME_SYSTEM    = UTC
MEAN_ELEMENT_THEORY = SGP/SGP4

EPOCH          = 2026-01-20T15:02:54.261024
MEAN_MOTION    = 13.04465375
ECCENTRICITY   = .00281665
INCLINATION    = 90.2294
RA_OF_ASC_NODE = 353.7846
ARG_OF_PERICENTER = 237.9326
MEAN_ANOMALY   = 121.9063

EPHEMERIS_TYPE = 0
CLASSIFICATION_TYPE = U
NORAD_CAT_ID   = 270176
ELEMENT_SET_NO = 999
REV_AT_EPOCH   = 29154
BSTAR          = .18404541E-3
MEAN_MOTION_DOT = .67E-6
MEAN_MOTION_DDOT = 0

CCSDS_OMM_VERS = 2.0
CREATION_DATE  = 
ORIGINATOR     = 

OBJECT_NAME    = UNKNOWN
OBJECT_ID      = 
CENTER_NAME    = EARTH
REF_FRAME      = TEME
TIME_SYSTEM    = UTC
MEAN_ELEMENT_THEORY = SGP/SGP4

EPOCH          = 2026-01-10T22:02:21.461280
MEAN_MOTION    = 12.53612860
ECCENTRICITY   = .00982394
INCLINATION    = 100.9049
RA_OF_ASC_NODE = 80.0461
ARG_OF_PERICENTER = 234.7759
MEAN_ANOMALY   = 124.4090

EPHEMERIS_TYPE = 0
CLASSIFICATION_TYPE = U
NORAD_CAT_ID   = 270177
ELEMENT_SET_NO = 999
REV_AT_EPOCH   = 27964
BSTAR          = .21765894E-2
MEAN_MOTION_DOT = .313E-5
MEAN_MOTION_DDOT = 0

